{
"type": "FeatureCollection",
"name": "substations",
"crs": { "type": "name", "properties": { "name": "urn:ogc:def:crs:OGC:1.3:CRS84" } },
"features": [
{ "type": "Feature", "properties": { "lat": 40.745712280273438, "version": 6, "id": "298286355", "timestamp": 1580774857, "lon": -4.0663223266601562, "tags": null, "changeset": 0, "power": "substation", "substation": null, "osm_type": "node" }, "geometry": { "type": "Point", "coordinates": [ -4.066322326660156, 40.745712280273438 ] } },
{ "type": "Feature", "properties": { "lat": 40.735599517822266, "version": 2, "id": "299299433", "timestamp": 1429916897, "lon": -4.0726022720336914, "tags": null, "changeset": 0, "power": "substation", "substation": null, "osm_type": "node" }, "geometry": { "type": "Point", "coordinates": [ -4.072602272033691, 40.735599517822266 ] } },
{ "type": "Feature", "properties": { "lat": 40.336585998535156, "version": 6, "id": "1499196339", "timestamp": 1580774857, "lon": -3.3810470104217529, "tags": null, "changeset": 0, "power": "substation", "substation": null, "osm_type": "node" }, "geometry": { "type": "Point", "coordinates": [ -3.381047010421753, 40.336585998535156 ] } },
{ "type": "Feature", "properties": { "lat": 40.374324798583984, "version": 2, "id": "1820931062", "timestamp": 1430472779, "lon": -3.4845356941223145, "tags": null, "changeset": 0, "power": "substation", "substation": null, "osm_type": "node" }, "geometry": { "type": "Point", "coordinates": [ -3.484535694122314, 40.374324798583984 ] } },
{ "type": "Feature", "properties": { "lat": 40.375896453857422, "version": 2, "id": "1820931078", "timestamp": 1430472779, "lon": -3.4849059581756592, "tags": null, "changeset": 0, "power": "substation", "substation": null, "osm_type": "node" }, "geometry": { "type": "Point", "coordinates": [ -3.484905958175659, 40.375896453857422 ] } },
{ "type": "Feature", "properties": { "lat": 40.377132415771484, "version": 3, "id": "2101378656", "timestamp": 1570046576, "lon": -3.7778725624084473, "tags": { "frequency": "50", "man_made": "street_cabinet", "street_cabinet": "power" }, "changeset": 0, "power": "substation", "substation": "minor_distribution", "osm_type": "node" }, "geometry": { "type": "Point", "coordinates": [ -3.777872562408447, 40.377132415771484 ] } },
{ "type": "Feature", "properties": { "lat": 40.725021362304688, "version": 4, "id": "2105859369", "timestamp": 1682935856, "lon": -4.0205607414245605, "tags": { "man_made": "street_cabinet", "utility": "power" }, "changeset": 0, "power": "substation", "substation": "minor_distribution", "osm_type": "node" }, "geometry": { "type": "Point", "coordinates": [ -4.020560741424561, 40.725021362304688 ] } },
{ "type": "Feature", "properties": { "lat": 40.731224060058594, "version": 4, "id": "2105859370", "timestamp": 1682935856, "lon": -4.0074954032897949, "tags": { "man_made": "street_cabinet", "utility": "power" }, "changeset": 0, "power": "substation", "substation": "minor_distribution", "osm_type": "node" }, "geometry": { "type": "Point", "coordinates": [ -4.007495403289795, 40.731224060058594 ] } },
{ "type": "Feature", "properties": { "lat": 40.728977203369141, "version": 4, "id": "2105859372", "timestamp": 1702983296, "lon": -4.0110225677490234, "tags": { "man_made": "street_cabinet", "utility": "power" }, "changeset": 0, "power": "substation", "substation": "minor_distribution", "osm_type": "node" }, "geometry": { "type": "Point", "coordinates": [ -4.011022567749023, 40.728977203369141 ] } },
{ "type": "Feature", "properties": { "lat": 40.728679656982422, "version": 4, "id": "2105859374", "timestamp": 1702983296, "lon": -4.0189838409423828, "tags": { "man_made": "street_cabinet", "utility": "power" }, "changeset": 0, "power": "substation", "substation": "minor_distribution", "osm_type": "node" }, "geometry": { "type": "Point", "coordinates": [ -4.018983840942383, 40.728679656982422 ] } },
{ "type": "Feature", "properties": { "lat": 40.733253479003906, "version": 4, "id": "2105859375", "timestamp": 1682935856, "lon": -4.0030112266540527, "tags": { "man_made": "street_cabinet", "utility": "power" }, "changeset": 0, "power": "substation", "substation": "minor_distribution", "osm_type": "node" }, "geometry": { "type": "Point", "coordinates": [ -4.003011226654053, 40.733253479003906 ] } },
{ "type": "Feature", "properties": { "lat": 40.731029510498047, "version": 4, "id": "2112385500", "timestamp": 1682935856, "lon": -3.9997384548187256, "tags": { "man_made": "street_cabinet", "utility": "power" }, "changeset": 0, "power": "substation", "substation": "minor_distribution", "osm_type": "node" }, "geometry": { "type": "Point", "coordinates": [ -3.999738454818726, 40.731029510498047 ] } },
{ "type": "Feature", "properties": { "lat": 40.732696533203125, "version": 4, "id": "2112385603", "timestamp": 1682935856, "lon": -3.9952001571655273, "tags": { "man_made": "street_cabinet", "utility": "power" }, "changeset": 0, "power": "substation", "substation": "minor_distribution", "osm_type": "node" }, "geometry": { "type": "Point", "coordinates": [ -3.995200157165527, 40.732696533203125 ] } },
{ "type": "Feature", "properties": { "lat": 40.461204528808594, "version": 5, "id": "2144825905", "timestamp": 1430472776, "lon": -3.4480438232421875, "tags": { "designation": "Transformador", "name": "Subestación eléctrica", "source": "survey" }, "changeset": 0, "power": "substation", "substation": null, "osm_type": "node" }, "geometry": { "type": "Point", "coordinates": [ -3.448043823242188, 40.461204528808594 ] } },
{ "type": "Feature", "properties": { "lat": 40.588085174560547, "version": 4, "id": "3165696753", "timestamp": 1458201651, "lon": -4.1350922584533691, "tags": null, "changeset": 0, "power": "substation", "substation": "minor_distribution", "osm_type": "node" }, "geometry": { "type": "Point", "coordinates": [ -4.135092258453369, 40.588085174560547 ] } },
{ "type": "Feature", "properties": { "lat": 40.584098815917969, "version": 7, "id": "3165696754", "timestamp": 1728392372, "lon": -4.1260623931884766, "tags": { "man_made": "street_cabinet", "utility": "power" }, "changeset": 0, "power": "substation", "substation": "minor_distribution", "osm_type": "node" }, "geometry": { "type": "Point", "coordinates": [ -4.126062393188477, 40.584098815917969 ] } },
{ "type": "Feature", "properties": { "lat": 40.747005462646484, "version": 1, "id": "3475790431", "timestamp": 1429916885, "lon": -4.0486793518066406, "tags": null, "changeset": 0, "power": "substation", "substation": null, "osm_type": "node" }, "geometry": { "type": "Point", "coordinates": [ -4.048679351806641, 40.747005462646484 ] } },
{ "type": "Feature", "properties": { "lat": 40.406463623046875, "version": 3, "id": "3727614512", "timestamp": 1509229115, "lon": -3.8373422622680664, "tags": null, "changeset": 0, "power": "substation", "substation": null, "osm_type": "node" }, "geometry": { "type": "Point", "coordinates": [ -3.837342262268066, 40.406463623046875 ] } },
{ "type": "Feature", "properties": { "lat": 40.341266632080078, "version": 2, "id": "5528041400", "timestamp": 1614355515, "lon": -3.8287374973297119, "tags": { "building": "residential", "operator": "Iberdrola", "operator:wikidata": "Q1437502", "operator:wikipedia": "es:Iberdrola" }, "changeset": 0, "power": "substation", "substation": null, "osm_type": "node" }, "geometry": { "type": "Point", "coordinates": [ -3.828737497329712, 40.341266632080078 ] } },
{ "type": "Feature", "properties": { "lat": 40.335990905761719, "version": 1, "id": "10799729727", "timestamp": 1681145690, "lon": -3.8524744510650635, "tags": { "name": "Subestación Alcorcón" }, "changeset": 0, "power": "substation", "substation": null, "osm_type": "node" }, "geometry": { "type": "Point", "coordinates": [ -3.852474451065063, 40.335990905761719 ] } }
]
}
